NORAD_CAT_ID,OBJECT_NAME,OBJECT_TYPE,EPOCH,MEAN_MOTION,ECCENTRICITY,INCLINATION,RA_OF_ASC_NODE,ARG_OF_PERICENTER,MEAN_ANOMALY,BSTAR,MEAN_MOTION_DOT,MEAN_MOTION_DDOT,TLE_LINE0,TLE_LINE1,TLE_LINE2,SEMIMAJOR_AXIS,PERIOD,APOGEE,PERIGEE,DECAYED
51715.0,STARLINK-3533,PAYLOAD,2022-09-13 14:00:01,15.08836423,0.0001841999999999,53.2172,284.3115,40.0354,220.533,8.6205e-05,1.084e-05,0.0,0 STARLINK-3533,1 51715U 22016B   22256.58334491  .00001084  00000-0  86205-4 0  9992,2 51715  53.2172 284.3115 0001842  40.0354 220.5330 15.08836423  1305,6917.891,95.438,541.031,538.482,0.0
51715.0,STARLINK-3533,PAYLOAD,2022-09-13 22:00:00,15.08809141,0.0001662,53.2148,282.8329,44.1981,227.9805,0.0028954,0.00046055,0.0,0 STARLINK-3533,1 51715U 22016B   22256.91667824  .00046055  00000-0  28954-2 0  9990,2 51715  53.2148 282.8329 0001662  44.1981 227.9805 15.08809141  1304,6917.975,95.44,540.989,538.69,0.0
51715.0,STARLINK-3533,PAYLOAD,2022-09-14 14:00:01,15.08877281,0.0001905,53.2155,279.8344,39.5826,255.7739,-0.0048011,-0.00075971,0.0,0 STARLINK-3533,1 51715U 22016B   22257.58334491 -.00075971  00000-0 -48011-2 0  9992,2 51715  53.2155 279.8344 0001905  39.5826 255.7739 15.08877281 32502,6917.766,95.435,540.9490000000002,538.314,0.0
51715.0,STARLINK-3533,PAYLOAD,2022-09-14 22:00:00,15.088091199999996,0.0001713,53.2152,278.3438,43.0023,263.9682,0.0023750999999999,0.00037682,0.0,0 STARLINK-3533,1 51715U 22016B   22257.91667824  .00037682  00000-0  23751-2 0  9997,2 51715  53.2152 278.3438 0001713  43.0023 263.9682 15.08809120  1302,6917.975,95.44,541.025,538.655,0.0
51715.0,STARLINK-3533,PAYLOAD,2022-09-15 06:00:00,15.08846491,0.0001847,53.2154,276.8484,41.9644,276.5817,-0.0011705,-0.00018872,0.0,0 STARLINK-3533,1 51715U 22016B   22258.25001157 -.00018872  00000-0 -11705-2 0  9994,2 51715  53.2154 276.8484 0001847  41.9644 276.5817 15.08846491 32601,6917.861,95.437,541.003,538.448,0.0
51715.0,STARLINK-3533,PAYLOAD,2022-09-15 14:00:01,15.08840941,0.0001935,53.2154,275.3525,37.8622,292.2771,0.00093635,0.00014646,0.0,0 STARLINK-3533,1 51715U 22016B   22258.58334491  .00014646  00000-0  93635-3 0  9996,2 51715  53.2154 275.3525 0001935  37.8622 292.2771 15.08840941  1300,6917.878000000002,95.437,541.081,538.404,0.0
51715.0,STARLINK-3533,PAYLOAD,2022-09-15 18:54:06,15.08844411,0.0001826,53.217,274.4351,45.4738,314.6403,6.1972e-05,6.98e-06,0.0,0 STARLINK-3533,1 51715U 22016B   22258.78757635  .00000698  00000-0  61972-4 0  9999,2 51715  53.2170 274.4351 0001826  45.4738 314.6403 15.08844411 32690,6917.8669999999975,95.437,540.995,538.469,0.0
51715.0,STARLINK-3533,PAYLOAD,2022-09-16 12:23:21,15.08845278,0.0001698,53.2162,271.1643,41.8512,318.2609,-0.00011653,-2.142e-05,0.0,0 STARLINK-3533,1 51715U 22016B   22259.51622061 -.00002142  00000-0 -11653-3 0  9993,2 51715  53.2162 271.1643 0001698  41.8512 318.2609 15.08845278 32809,6917.864000000001,95.437,540.904,538.555,0.0
51715.0,STARLINK-3533,PAYLOAD,2022-09-17 04:17:13,15.08832321,0.0001786999999999,53.2161,268.1899,38.3021,321.8098,8.114099999999999e-06,-1.59e-06,0.0,0 STARLINK-3533,1 51715U 22016B   22260.17862524 -.00000159  00000-0  81141-5 0  9993,2 51715  53.2161 268.1899 0001787  38.3021 321.8098 15.08832321 32900,6917.904,95.438,541.005,538.533,0.0
51715.0,STARLINK-3533,PAYLOAD,2022-09-17 10:38:46,15.08826599,0.0001814,53.2164,267.0013,38.9927,321.1196,-3.5108e-05,-8.47e-06,0.0,0 STARLINK-3533,1 51715U 22016B   22260.44359189 -.00000847  00000-0 -35108-4 0  9997,2 51715  53.2164 267.0013 0001814  38.9927 321.1196 15.08826599 32947,6917.920999999999,95.438,541.0409999999998,538.531,0.0
51715.0,STARLINK-3533,PAYLOAD,2022-09-18 04:08:00,15.08840786,0.0001761999999999,53.2162,263.7297,36.4892,323.622,-0.00010419,-1.946e-05,0.0,0 STARLINK-3533,1 51715U 22016B   22261.17222814 -.00001946  00000-0 -10419-3 0  9990,2 51715  53.2162 263.7297 0001762  36.4892 323.6220 15.08840786 33050,6917.878000000002,95.438,540.962,538.524,0.0
51715.0,STARLINK-3533,PAYLOAD,2022-09-18 08:54:10,15.08831481,0.0001831999999999,53.2165,262.8376,38.8119,321.3004,7.2468e-05,8.65e-06,0.0,0 STARLINK-3533,1 51715U 22016B   22261.37095082  .00000865  00000-0  72468-4 0  9997,2 51715  53.2165 262.8376 0001832  38.8119 321.3004 15.08831481 33087,6917.906,95.438,541.039,538.504,0.0
51715.0,STARLINK-3533,PAYLOAD,2022-09-18 16:51:05,15.08832496,0.0001851999999999,53.2166,261.3508,39.2701,320.8425,7.0465e-05,8.33e-06,0.0,0 STARLINK-3533,1 51715U 22016B   22261.70215207  .00000833  00000-0  70465-4 0  9997,2 51715  53.2166 261.3508 0001852  39.2701 320.8425 15.08832496 33137,6917.903,95.438,541.05,538.487,0.0
51715.0,STARLINK-3533,PAYLOAD,2022-09-19 08:44:56,15.08839755,0.0001806,53.2167,258.3771,43.1281,316.9853,0.00021479,3.132e-05,0.0,0 STARLINK-3533,1 51715U 22016B   22262.36454617  .00003132  00000-0  21479-3 0  9995,2 51715  53.2167 258.3771 0001806  43.1281 316.9853 15.08839755 33239,6917.880999999999,95.438,540.996,538.497,0.0
51715.0,STARLINK-3533,PAYLOAD,2022-09-20 08:35:44,15.08841799,0.0001849,53.2167,253.9165,44.8485,315.2656,0.00010812,1.433e-05,0.0,0 STARLINK-3533,1 51715U 22016B   22263.35814849  .00001433  00000-0  10812-3 0  9993,2 51715  53.2167 253.9165 0001849  44.8485 315.2656 15.08841799 33388,6917.875,95.437,541.019,538.461,0.0
51715.0,STARLINK-3533,PAYLOAD,2022-09-20 16:32:39,15.08845716,0.0001893,53.2168,252.4295,43.4907,316.6234,0.00011786,1.588e-05,0.0,0 STARLINK-3533,1 51715U 22016B   22263.68934534  .00001588  00000-0  11786-3 0  9995,2 51715  53.2168 252.4295 0001893  43.4907 316.6234 15.08845716 33436,6917.863,95.437,541.0369999999998,538.418,0.0
51715.0,STARLINK-3533,PAYLOAD,2022-09-21 05:15:45,15.08840802,0.0001933,53.2171,250.0506,45.2336,314.8813,-2.4314e-05,-6.75e-06,0.0,0 STARLINK-3533,1 51715U 22016B   22264.21927161 -.00000675  00000-0 -24314-4 0  9993,2 51715  53.2171 250.0506 0001933  45.2336 314.8813 15.08840802 33513,6917.878000000002,95.438,541.08,538.406,0.0
51715.0,STARLINK-3533,PAYLOAD,2022-09-21 08:26:31,15.08841906,0.0001964,53.2171,249.4558,45.1128,315.0023,-1.9161e-05,-5.93e-06,0.0,0 STARLINK-3533,1 51715U 22016B   22264.35175043 -.00000593  00000-0 -19161-4 0  9995,2 51715  53.2171 249.4558 0001964  45.1128 315.0023 15.08841906 33538,6917.875,95.437,541.0980000000002,538.381,0.0
51715.0,STARLINK-3533,PAYLOAD,2022-09-22 08:17:17,15.08844089,0.0002016,53.2173,244.996,45.2598,314.8558,8.141399999999999e-05,1.008e-05,0.0,0 STARLINK-3533,1 51715U 22016B   22265.34534473  .00001008  00000-0  81414-4 0  9991,2 51715  53.2173 244.9960 0002016  45.2598 314.8558 15.08844089 33689,6917.868,95.437,541.128,538.3380000000002,0.0
51715.0,STARLINK-3533,PAYLOAD,2022-09-23 04:57:19,15.08833127,0.0002159,53.2171,241.1315,48.8295,311.2883,6.742199999999999e-05,7.85e-06,0.0,0 STARLINK-3533,1 51715U 22016B   22266.20647383  .00000785  00000-0  67422-4 0  9996,2 51715  53.2171 241.1315 0002159  48.8295 311.2883 15.08833127 33819,6917.901,95.438,541.26,538.273,0.0
51715.0,STARLINK-3533,PAYLOAD,2022-09-23 08:08:05,15.08838029,0.0002147,53.2171,240.5365,47.8761,312.2413,0.00010275,1.347e-05,0.0,0 STARLINK-3533,1 51715U 22016B   22266.33895026  .00001347  00000-0  10275-3 0  9997,2 51715  53.2171 240.5365 0002147  47.8761 312.2413 15.08838029 33839,6917.886,95.438,541.237,538.266,0.0
51715.0,STARLINK-3533,PAYLOAD,2022-09-24 04:48:06,15.08839865,0.0001921,53.2177,236.6703,48.2196,311.896,2.1091e-05,4.8e-07,0.0,0 STARLINK-3533,1 51715U 22016B   22267.20007129  .00000048  00000-0  21091-4 0  9999,2 51715  53.2177 236.6703 0001921  48.2196 311.8960 15.08839865 33968,6917.880999999999,95.438,541.075,538.4169999999998,0.0
51715.0,STARLINK-3533,PAYLOAD,2022-09-25 07:49:39,15.08853419,0.0001893,53.2166,231.6143,44.9155,315.199,-0.00011443,-2.11e-05,0.0,0 STARLINK-3533,1 51715U 22016B   22268.32614611 -.00002110  00000-0 -11443-3 0  9996,2 51715  53.2166 231.6143 0001893  44.9155 315.1990 15.08853419 34136,6917.839,95.437,541.014,538.395,0.0
51715.0,STARLINK-3533,PAYLOAD,2022-09-26 06:05:03,15.08859182,0.0001746,53.2171,227.4515,45.4057,314.7077,-0.00026953,-4.577e-05,0.0,0 STARLINK-3533,1 51715U 22016B   22269.25350727 -.00004577  00000-0 -26953-3 0  9995,2 51715  53.2171 227.4515 0001746  45.4057 314.7077 15.08859182 34271,6917.821999999999,95.436,540.895,538.479,0.0
51715.0,STARLINK-3533,PAYLOAD,2022-09-26 14:01:59,15.08830852,0.0002165999999999,53.2168,225.963,39.9405,320.1746,-4.052e-05,-9.33e-06,0.0,0 STARLINK-3533,1 51715U 22016B   22269.58472091 -.00000933  00000-0 -40520-4 0  9999,2 51715  53.2168 225.9630 0002166  39.9405 320.1746 15.08830852 34323,6917.908,95.438,541.2719999999998,538.275,0.0
51715.0,STARLINK-3533,PAYLOAD,2022-09-27 05:55:50,15.08835629,0.0001893,53.2169,222.9911,47.2135,312.9016,4.7008e-05,4.6e-06,0.0,0 STARLINK-3533,1 51715U 22016B   22270.24711792  .00000460  00000-0  47008-4 0  9999,2 51715  53.2169 222.9911 0001893  47.2135 312.9016 15.08835629 34428,6917.894,95.438,541.068,538.4490000000002,0.0
51715.0,STARLINK-3533,PAYLOAD,2022-09-28 04:11:14,15.08844574,0.0001903,53.217,218.828,48.322,311.7935,0.0001197,1.618e-05,0.0,0 STARLINK-3533,1 51715U 22016B   22271.17446883  .00001618  00000-0  11970-3 0  9992,2 51715  53.2170 218.8280 0001903  48.3220 311.7935 15.08844574 34563,6917.866,95.437,541.048,538.415,0.0
51715.0,STARLINK-3533,PAYLOAD,2022-09-28 05:46:37,15.0884454,0.0002063,53.2173,218.5301,46.4434,313.673,0.00012405,1.687e-05,0.0,0 STARLINK-3533,1 51715U 22016B   22271.24070868  .00001687  00000-0  12405-3 0  9996,2 51715  53.2173 218.5301 0002063  46.4434 313.6730 15.08844540 34579,6917.8669999999975,95.437,541.159,538.304,0.0
51715.0,STARLINK-3533,PAYLOAD,2022-09-29 04:02:01,15.08843975,0.0002041,53.2174,214.3673,47.4941,312.6223,8.516e-05,1.068e-05,0.0,0 STARLINK-3533,1 51715U 22016B   22272.16806990  .00001068  00000-0  85160-4 0  9993,2 51715  53.2174 214.3673 0002041  47.4941 312.6223 15.08843975 34719,6917.868,95.437,541.145,538.321,0.0
